{"type": "FeatureCollection", "features": [ {"type": "Feature", "properties": {"norad_id": 66687, "name": "TRANSPORTER-15 X", "group": "last-30-days", "lat": 71.45618571628773, "lon": 45.287249593213296, "alt_km": 503.5189147741248, "timestamp": "2025-12-22T15:43:47.684379+00:00", "meta": {"OBJECT_NAME": "TRANSPORTER-15 X", "OBJECT_ID": "2025-276X", "EPOCH": "2025-12-22T05:54:34.043904", "MEAN_MOTION": 15.16685903, "ECCENTRICITY": 0.0008262, "INCLINATION": 97.4389, "RA_OF_ASC_NODE": 67.8097, "ARG_OF_PERICENTER": 56.9316, "MEAN_ANOMALY": 303.271, "EPHEMERIS_TYPE": 0, "CLASSIFICATION_TYPE": "U", "NORAD_CAT_ID": 66687, "ELEMENT_SET_NO": 999, "REV_AT_EPOCH": 356, "BSTAR": 0.00077452492, "MEAN_MOTION_DOT": 0.00015134, "MEAN_MOTION_DDOT": 0}, "tle": {"line1": "1 66687U 25276X   25356.24622736  .00015134  00000+0  77452-3 0  9999", "line2": "2 66687  97.4389  67.8097 0008262  56.9316 303.2710 15.16685903  3564"}}, "geometry": {"type": "Point", "coordinates": [45.287249593213296, 71.45618571628773]}}, {"type": "Feature", "properties": {"norad_id": 66688, "name": "TRANSPORTER-15 Y", "group": "last-30-days", "lat": 71.53586866194144, "lon": -88.70592189339145, "alt_km": 509.79945484386917, "timestamp": "2025-12-22T15:43:47.684390+00:00", "meta": {"OBJECT_NAME": "TRANSPORTER-15 Y", "OBJECT_ID": "2025-276Y", "EPOCH": "2025-12-22T05:45:43.452864", "MEAN_MOTION": 15.17072286, "ECCENTRICITY": 0.00036842, "INCLINATION": 97.4438, "RA_OF_ASC_NODE": 67.8338, "ARG_OF_PERICENTER": 250.7422, "MEAN_ANOMALY": 109.3413, "EPHEMERIS_TYPE": 0, "CLASSIFICATION_TYPE": "U", "NORAD_CAT_ID": 66688, "ELEMENT_SET_NO": 999, "REV_AT_EPOCH": 356, "BSTAR": 0.00054347054, "MEAN_MOTION_DOT": 0.00010703, "MEAN_MOTION_DDOT": 0}, "tle": {"line1": "1 66688U 25276Y   25356.24008626  .00010703  00000+0  54347-3 0  9991", "line2": "2 66688  97.4438  67.8338 0003684 250.7422 109.3413 15.17072286  3563"}}, "geometry": {"type": "Point", "coordinates": [-88.70592189339145, 71.53586866194144]}}, {"type": "Feature", "properties": {"norad_id": 66689, "name": "TRANSPORTER-15 Z", "group": "last-30-days", "lat": 53.58777768054872, "lon": -101.54502945681867, "alt_km": 511.3300094073138, "timestamp": "2025-12-22T15:43:47.684401+00:00", "meta": {"OBJECT_NAME": "TRANSPORTER-15 Z", "OBJECT_ID": "2025-276Z", "EPOCH": "2025-12-22T05:40:55.630272", "MEAN_MOTION": 15.1740924, "ECCENTRICITY": 0.00047849, "INCLINATION": 97.4421, "RA_OF_ASC_NODE": 67.8358, "ARG_OF_PERICENTER": 283.8405, "MEAN_ANOMALY": 76.2296, "EPHEMERIS_TYPE": 0, "CLASSIFICATION_TYPE": "U", "NORAD_CAT_ID": 66689, "ELEMENT_SET_NO": 999, "REV_AT_EPOCH": 356, "BSTAR": 0.0076723241, "MEAN_MOTION_DOT": 0.00156546, "MEAN_MOTION_DDOT": 0}, "tle": {"line1": "1 66689U 25276Z   25356.23675498  .00156546  00000+0  76723-2 0  9995", "line2": "2 66689  97.4421  67.8358 0004784 283.8405  76.2296 15.17409240  3563"}}, "geometry": {"type": "Point", "coordinates": [-101.54502945681867, 53.58777768054872]}}, {"type": "Feature", "properties": {"norad_id": 66690, "name": "TRANSPORTER-15 AA", "group": "last-30-days", "lat": 71.83341678620177, "lon": -88.30282244721437, "alt_km": 509.8230190413951, "timestamp": "2025-12-22T15:43:47.684412+00:00", "meta": {"OBJECT_NAME": "TRANSPORTER-15 AA", "OBJECT_ID": "2025-276AA", "EPOCH": "2025-12-22T05:45:48.131424", "MEAN_MOTION": 15.17052128, "ECCENTRICITY": 0.00035871, "INCLINATION": 97.4397, "RA_OF_ASC_NODE": 67.8222, "ARG_OF_PERICENTER": 251.7427, "MEAN_ANOMALY": 108.3417, "EPHEMERIS_TYPE": 0, "CLASSIFICATION_TYPE": "U", "NORAD_CAT_ID": 66690, "ELEMENT_SET_NO": 999, "REV_AT_EPOCH": 356, "BSTAR": 0.00047912415, "MEAN_MOTION_DOT": 9.421e-05, "MEAN_MOTION_DDOT": 0}, "tle": {"line1": "1 66690U 25276AA  25356.24014041  .00009421  00000+0  47912-3 0  9997", "line2": "2 66690  97.4397  67.8222 0003587 251.7427 108.3417 15.17052128  3566"}}, "geometry": {"type": "Point", "coordinates": [-88.30282244721437, 71.83341678620177]}}, {"type": "Feature", "properties": {"norad_id": 66691, "name": "TRANSPORTER-15 AB", "group": "last-30-days", "lat": 61.69940124730625, "lon": -97.70948694668375, "alt_km": 509.8630599219596, "timestamp": "2025-12-22T15:43:47.684421+00:00", "meta": {"OBJECT_NAME": "TRANSPORTER-15 AB", "OBJECT_ID": "2025-276AB", "EPOCH": "2025-12-22T05:43:03.369216", "MEAN_MOTION": 15.17280662, "ECCENTRICITY": 0.00037617, "INCLINATION": 97.4421, "RA_OF_ASC_NODE": 67.8313, "ARG_OF_PERICENTER": 252.8727, "MEAN_ANOMALY": 107.2095, "EPHEMERIS_TYPE": 0, "CLASSIFICATION_TYPE": "U", "NORAD_CAT_ID": 66691, "ELEMENT_SET_NO": 999, "REV_AT_EPOCH": 356, "BSTAR": 0.00061232958, "MEAN_MOTION_DOT": 0.00012143, "MEAN_MOTION_DDOT": 0}, "tle": {"line1": "1 66691U 25276AB  25356.23823344  .00012143  00000+0  61233-3 0  9998", "line2": "2 66691  97.4421  67.8313 0003761 252.8727 107.2095 15.17280662  3561"}}, "geometry": {"type": "Point", "coordinates": [-97.70948694668375, 61.69940124730625]}}, {"type": "Feature", "properties": {"norad_id": 66692, "name": "TRANSPORTER-15 AC", "group": "last-30-days", "lat": 46.61590011985683, "lon": -103.7981128742607, "alt_km": 511.13591244475174, "timestamp": "2025-12-22T15:43:47.684431+00:00", "meta": {"OBJECT_NAME": "TRANSPORTER-15 AC", "OBJECT_ID": "2025-276AC", "EPOCH": "2025-12-21T18:33:56.289888", "MEAN_MOTION": 15.17114883, "ECCENTRICITY": 0.0001987, "INCLINATION": 97.4425, "RA_OF_ASC_NODE": 67.3859, "ARG_OF_PERICENTER": 209.7052, "MEAN_ANOMALY": 150.4069, "EPHEMERIS_TYPE": 0, "CLASSIFICATION_TYPE": "U", "NORAD_CAT_ID": 66692, "ELEMENT_SET_NO": 999, "REV_AT_EPOCH": 349, "BSTAR": -0.0096276, "MEAN_MOTION_DOT": -0.00186003, "MEAN_MOTION_DDOT": 0}, "tle": {"line1": "1 66692U 25276AC  25355.77356817 -.00186003  00000+0 -96276-2 0  9996", "line2": "2 66692  97.4425  67.3859 0001987 209.7052 150.4069 15.17114883  3490"}}, "geometry": {"type": "Point", "coordinates": [-103.7981128742607, 46.61590011985683]}}, {"type": "Feature", "properties": {"norad_id": 66693, "name": "TRANSPORTER-15 AD", "group": "last-30-days", "lat": 45.68961607287508, "lon": -104.07709915583293, "alt_km": 511.00617682635857, "timestamp": "2025-12-22T15:43:47.684443+00:00", "meta": {"OBJECT_NAME": "TRANSPORTER-15 AD", "OBJECT_ID": "2025-276AD", "EPOCH": "2025-12-22T05:38:51.348192", "MEAN_MOTION": 15.17587034, "ECCENTRICITY": 0.00033084, "INCLINATION": 97.4375, "RA_OF_ASC_NODE": 67.8201, "ARG_OF_PERICENTER": 277.925, "MEAN_ANOMALY": 82.1608, "EPHEMERIS_TYPE": 0, "CLASSIFICATION_TYPE": "U", "NORAD_CAT_ID": 66693, "ELEMENT_SET_NO": 999, "REV_AT_EPOCH": 356, "BSTAR": 0.00088366778, "MEAN_MOTION_DOT": 0.0001772, "MEAN_MOTION_DDOT": 0}, "tle": {"line1": "1 66693U 25276AD  25356.23531653  .00017720  00000+0  88367-3 0  9992", "line2": "2 66693  97.4375  67.8201 0003308 277.9250  82.1608 15.17587034  3567"}}, "geometry": {"type": "Point", "coordinates": [-104.07709915583293, 45.68961607287508]}}, {"type": "Feature", "properties": {"norad_id": 66694, "name": "YAM-9", "group": "last-30-days", "lat": 30.16250211232745, "lon": -107.38889798449316, "alt_km": 498.9203807306467, "timestamp": "2025-12-22T15:43:47.684453+00:00", "meta": {"OBJECT_NAME": "YAM-9", "OBJECT_ID": "2025-276AE", "EPOCH": "2025-12-22T04:00:52.312896", "MEAN_MOTION": 15.19342244, "ECCENTRICITY": 0.00054758, "INCLINATION": 97.4431, "RA_OF_ASC_NODE": 67.7724, "ARG_OF_PERICENTER": 147.0112, "MEAN_ANOMALY": 213.1465, "EPHEMERIS_TYPE": 0, "CLASSIFICATION_TYPE": "U", "NORAD_CAT_ID": 66694, "ELEMENT_SET_NO": 999, "REV_AT_EPOCH": 355, "BSTAR": 0.057140521, "MEAN_MOTION_DOT": 0.01306676, "MEAN_MOTION_DDOT": 0}, "tle": {"line1": "1 66694U 25276AE  25356.16727214  .01306676  00000+0  57141-1 0  9991", "line2": "2 66694  97.4431  67.7724 0005475 147.0112 213.1465 15.19342244  3551"}}, "geometry": {"type": "Point", "coordinates": [-107.38889798449316, 30.16250211232745]}}, {"type": "Feature", "properties": {"norad_id": 66695, "name": "IRIDE FM1", "group": "last-30-days", "lat": -20.566274701808144, "lon": -114.54012805775149, "alt_km": 515.9083477804561, "timestamp": "2025-12-22T15:43:47.684468+00:00", "meta": {"OBJECT_NAME": "IRIDE FM1", "OBJECT_ID": "2025-276AF", "EPOCH": "2025-12-22T05:21:30.062304", "MEAN_MOTION": 15.18243986, "ECCENTRICITY": 0.00012319, "INCLINATION": 97.4404, "RA_OF_ASC_NODE": 67.8454, "ARG_OF_PERICENTER": 150.2192, "MEAN_ANOMALY": 209.9112, "EPHEMERIS_TYPE": 0, "CLASSIFICATION_TYPE": "U", "NORAD_CAT_ID": 66695, "ELEMENT_SET_NO": 999, "REV_AT_EPOCH": 356, "BSTAR": 0.00067274795, "MEAN_MOTION_DOT": 0.00013723, "MEAN_MOTION_DDOT": 0}, "tle": {"line1": "1 66695U 25276AF  25356.22326461  .00013723  00000+0  67275-3 0  9996", "line2": "2 66695  97.4404  67.8454 0001231 150.2192 209.9112 15.18243986  3568"}}, "geometry": {"type": "Point", "coordinates": [-114.54012805775149, -20.566274701808144]}}, {"type": "Feature", "properties": {"norad_id": 66696, "name": "IRIDE FM2", "group": "last-30-days", "lat": 49.075238823434276, "lon": -103.09495131003065, "alt_km": 510.66023192200646, "timestamp": "2025-12-22T15:43:47.684479+00:00", "meta": {"OBJECT_NAME": "IRIDE FM2", "OBJECT_ID": "2025-276AG", "EPOCH": "2025-12-22T05:39:41.620896", "MEAN_MOTION": 15.17404857, "ECCENTRICITY": 0.00026683, "INCLINATION": 97.4393, "RA_OF_ASC_NODE": 67.8248, "ARG_OF_PERICENTER": 271.0113, "MEAN_ANOMALY": 89.0815, "EPHEMERIS_TYPE": 0, "CLASSIFICATION_TYPE": "U", "NORAD_CAT_ID": 66696, "ELEMENT_SET_NO": 999, "REV_AT_EPOCH": 356, "BSTAR": 0.00067231692, "MEAN_MOTION_DOT": 0.00013387, "MEAN_MOTION_DDOT": 0}, "tle": {"line1": "1 66696U 25276AG  25356.23589839  .00013387  00000+0  67232-3 0  9997", "line2": "2 66696  97.4393  67.8248 0002668 271.0113  89.0815 15.17404857  3569"}}, "geometry": {"type": "Point", "coordinates": [-103.09495131003065, 49.075238823434276]}}]}